sat_config_name,tle_name,norad_id,horizons_id,epoch_tle,t_obs,delta_t_min,incl_deg,raan_deg,ecc,argp_deg,M_deg,mean_motion_rev_per_day,x_sgp4,y_sgp4,z_sgp4,vx_sgp4,vy_sgp4,vz_sgp4,x_true,y_true,z_true,vx_true,vy_true,vz_true,err_x,err_y,err_z,err_vx,err_vy,err_vz,err_norm,horizons_ok,line1,line2
CHANDRA,CXO,25867,-151,2025-11-29T09:28:09.054336+00:00,2025-11-28T22:18:09.054336+00:00,-670.0,52.7584,123.0489,0.8164697,310.7158,0.2585,0.37803381,29797.90102049469,-91032.2348963552,31668.994562447697,0.2845533255939377,1.219744494673551,-1.1831512598118175,29799.771063835087,-91021.4559802658,31658.204491889228,0.28380650435345545,1.220528339255031,-1.1834498598761414,-1.8700433403973875,-10.778916089402628,10.79007055846887,0.0007468212404822538,-0.0007838445814800643,0.0002986000643239173,15.365796979463322,True,1 25867U 99040B   25333.39454924  .00000722  00000+0  00000+0 0  9995,2 25867  52.7584 123.0489 8164697 310.7158   0.2585  0.37803381 16565
CHANDRA,CXO,25867,-151,2025-11-29T09:28:09.054336+00:00,2025-11-28T22:23:09.054336+00:00,-665.0,52.7584,123.0489,0.8164697,310.7158,0.2585,0.37803381,29882.66125049361,-90664.51395050989,31313.2799297759,0.28105640259345116,1.2303963744334723,-1.1868452373966332,29884.38976494202,-90653.70203093893,31302.61563349661,0.2803092130122102,1.231179396291593,-1.1871430644778405,-1.7285144484121702,-10.811919570958707,10.664296279290284,0.0007471895812409812,-0.000783021858120625,0.0002978270812072914,15.284390146150226,True,1 25867U 99040B   25333.39454924  .00000722  00000+0  00000+0 0  9995,2 25867  52.7584 123.0489 8164697 310.7158   0.2585  0.37803381 16565
CHANDRA,CXO,25867,-151,2025-11-29T09:28:09.054336+00:00,2025-11-28T22:28:09.054336+00:00,-660.0,52.7584,123.0489,0.8164697,310.7158,0.2585,0.37803381,29966.364319156615,-90293.5822972485,30956.455534663844,0.2775054037524561,1.241138626123911,-1.1905434371152421,29967.951187663406,-90282.73930461981,30945.91822754099,0.2767578675933657,1.2419207824343488,-1.1908404745404355,-1.586868506790779,-10.842992628691718,10.537307122853235,0.0007475361590904006,-0.0007821563104377649,0.0002970374251933805,15.202745877144723,True,1 25867U 99040B   25333.39454924  .00000722  00000+0  00000+0 0  9995,2 25867  52.7584 123.0489 8164697 310.7158   0.2585  0.37803381 16565
CHANDRA,CXO,25867,-151,2025-11-29T09:28:09.054336+00:00,2025-11-28T22:33:09.054336+00:00,-655.0,52.7584,123.0489,0.8164697,310.7158,0.2585,0.37803381,30048.99382652554,-89919.41256263413,30598.520128848606,0.27389917584178614,1.2519728712277505,-1.1942457317072563,30050.438965956986,-89908.54036053432,30588.110935438406,0.2731513143106328,1.2527541213948306,-1.1945419638324788,-1.4451394314455683,-10.872202099810238,10.409193410199805,0.0007478615311533598,-0.0007812501670800831,0.0002962321252224509,15.12099579810748,True,1 25867U 99040B   25333.39454924  .00000722  00000+0  00000+0 0  9995,2 25867  52.7584 123.0489 8164697 310.7158   0.2585  0.37803381 16565
CHANDRA,CXO,25867,-151,2025-11-29T09:28:09.054336+00:00,2025-11-28T22:38:09.054336+00:00,-650.0,52.7584,123.0489,0.8164697,310.7158,0.2585,0.37803381,30130.53302140136,-89541.97687989408,30239.47250365088,0.2702365313793968,1.2629007717612724,-1.1979519847105504,30131.83633824956,-89531.0774656781,30229.19264996684,0.2694883670628666,1.2636810716097973,-1.1982473949425492,-1.3033168481997564,-10.89941421597905,10.279853684038244,0.0007481643165301866,-0.0007802998485249013,0.0002954102319987495,15.038991216950764,True,1 25867U 99040B   25333.39454924  .00000722  00000+0  00000+0 0  9995,2 25867  52.7584 123.0489 8164697 310.7158   0.2585  0.37803381 16565
CHANDRA,CXO,25867,-151,2025-11-29T09:28:09.054336+00:00,2025-11-28T22:43:09.054336+00:00,-645.0,52.7584,123.0489,0.8164697,310.7158,0.2585,0.37803381,30210.964790903417,-89161.24687704511,29879.31149281039,0.266516247345241,1.2739240315932931,-1.2016620499731137,30212.12622560581,-89150.32218032544,29869.16211359078,0.265767802272977,1.2747033392025133,-1.201956622768337,-1.1614347023933078,-10.924696719666827,10.149379219608818,0.0007484450722639591,-0.0007793076092201812,0.00029457279522326907,14.956865564952098,True,1 25867U 99040B   25333.39454924  .00000722  00000+0  00000+0 0  9995,2 25867  52.7584 123.0489 8164697 310.7158   0.2585  0.37803381 16565
CHANDRA,CXO,25867,-151,2025-11-29T09:28:09.054336+00:00,2025-11-28T22:48:09.054336+00:00,-640.0,52.7584,123.0489,0.8164697,310.7158,0.2585,0.37803381,30290.27164956325,-88777.19366413675,29518.035975471717,0.262737063838639,1.2850443978165915,-1.2053757711373076,30291.291133389022,-88766.24575101661,29508.018307236987,0.261988361483918,1.2858226676075986,-1.2056694900188947,-1.019483825773932,-10.947913120136946,10.017668234730081,0.0007487023547209648,-0.0007782697910070357,0.00029371888158702397,14.874468925585257,True,1 25867U 99040B   25333.39454924  .00000722  00000+0  00000+0 0  9995,2 25867  52.7584 123.0489 8164697 310.7158   0.2585  0.37803381 16565
CHANDRA,CXO,25867,-151,2025-11-29T09:28:09.054336+00:00,2025-11-28T22:53:09.054336+00:00,-635.0,52.7584,123.0489,0.8164697,310.7158,0.2585,0.37803381,30368.435728077056,-88389.78782005205,29155.6448793293,0.2588976826730187,1.296263662174493,-1.2090929810947741,30369.313215783168,-88378.8187408405,29145.760115625348,0.2581487464790396,1.2970408493180845,-1.2093858301525133,-0.8774877061114239,-10.96907921154343,9.884763703950739,0.0007489361939790884,-0.0007771871435915401,0.00029284905773918624,14.79186387533474,True,1 25867U 99040B   25333.39454924  .00000722  00000+0  00000+0 0  9995,2 25867  52.7584 123.0489 8164697 310.7158   0.2585  0.37803381 16565
CHANDRA,CXO,25867,-151,2025-11-29T09:28:09.054336+00:00,2025-11-28T22:58:09.054336+00:00,-630.0,52.7584,123.0489,0.8164697,310.7158,0.2585,0.37803381,30445.43876158609,-87998.99937888383,28792.13718393986,0.25499676590626597,1.307583662544895,-1.2128135014101626,30446.1742311832,-87988.01116658837,28782.38647437884,0.2542476192696755,1.30835972300614,-1.2131054653147186,-0.7354695971080218,-10.988212295458652,9.750709561019903,0.0007491466365904809,-0.0007760604612447874,0.00029196390455599186,14.709114926524434,True,1 25867U 99040B   25333.39454924  .00000722  00000+0  00000+0 0  9995,2 25867  52.7584 123.0489 8164697 310.7158   0.2585  0.37803381 16565
CHANDRA,CXO,25867,-151,2025-11-29T09:28:09.054336+00:00,2025-11-28T23:03:09.054336+00:00,-625.0,52.7584,123.0489,0.8164697,310.7158,0.2585,0.37803381,30521.262077522573,-87604.7978158528,28427.51192421449,0.25103293430234785,1.319006284484573,-1.2165371417116704,30521.85549970174,-87593.79264448184,28417.896520881568,0.2502836021672161,1.319781170437293,-1.2168282042232954,-0.5934221791685559,-11.005171370954486,9.615403332922142,0.0007493321351317306,-0.000774885952720128,0.0002910625116250287,14.626070150302699,True,1 25867U 99040B   25333.39454924  .00000722  00000+0  00000+0 0  9995,2 25867  52.7584 123.0489 8164697 310.7158   0.2585  0.37803381 16565
CHANDRA,CXO,25867,-151,2025-11-29T09:28:09.054336+00:00,2025-11-28T23:08:09.054336+00:00,-620.0,52.7584,123.0489,0.8164697,310.7158,0.2585,0.37803381,30595.88658294784,-87207.15203276262,28061.768194097833,0.24700476572120866,1.3305334628365768,-1.2202636990463183,30596.33796234867,-87196.1320073997,28052.289256255604,0.24625527249022733,1.3313071287450189,-1.2205538450223987,-0.4513794008271361,-11.020025362915476,9.478937842228333,0.0007494932309813351,-0.0007736659084420783,0.0002901459760804581,14.542866463652198,True,1 25867U 99040B   25333.39454924  .00000722  00000+0  00000+0 0  9995,2 25867  52.7584 123.0489 8164697 310.7158   0.2585  0.37803381 16565
CHANDRA,CXO,25867,-151,2025-11-29T09:28:09.054336+00:00,2025-11-28T23:13:09.054336+00:00,-615.0,52.7584,123.0489,0.8164697,310.7158,0.2585,0.37803381,30669.292751467226,-86806.03034293882,27694.90515044537,0.24291079343134858,1.3421671834040525,-1.2239929571976564,30669.60208676346,-86794.99771264088,27685.563940125743,0.24216116513126054,1.3429395798530241,-1.2242821706085505,-0.3093352962350764,-11.03263029793743,9.341210319627862,0.0007496283000880399,-0.0007723964489716462,0.0002892134108940514,14.459350948503388,True,1 25867U 99040B   25333.39454924  .00000722  00000+0  00000+0 0  9995,2 25867  52.7584 123.0489 8164697 310.7158   0.2585  0.37803381 16565
CHANDRA,CXO,25867,-151,2025-11-29T09:28:09.054336+00:00,2025-11-28T23:18:09.054336+00:00,-610.0,52.7584,123.0489,0.8164697,310.7158,0.2585,0.37803381,30741.46060953499,-86401.40045568724,27326.922017114888,0.23874950434332434,1.3539094846931385,-1.2277246859634865,30741.6279334215,-86390.35740003541,27317.71970273813,0.23799976647028045,1.3546805645755933,-1.2280129519019416,-0.16732388650780194,-11.043055651825853,9.202314376758295,0.0007497378730438875,-0.0007710798824547282,0.0002882659384551012,14.375662256084462,True,1 25867U 99040B   25333.39454924  .00000722  00000+0  00000+0 0  9995,2 25867  52.7584 123.0489 8164697 310.7158   0.2585  0.37803381 16565
CHANDRA,CXO,25867,-151,2025-11-29T09:28:09.054336+00:00,2025-11-28T23:23:09.054336+00:00,-605.0,52.7584,123.0489,0.8164697,310.7158,0.2585,0.37803381,30812.36972231248,-85993.22946018353,26957.818089276218,0.23451933715673476,1.3657624597290405,-1.2314586403909888,30812.395062864576,-85982.17830628408,26948.755942739917,0.23376951691778977,1.3665321719508277,-1.2317459430829576,-0.025340552096167812,-11.051153899446945,9.062146536300133,0.0007498202389449871,-0.0007697122217871222,0.00028730269196874936,14.29164596882453,True,1 25867U 99040B   25333.39454924  .00000722  00000+0  00000+0 0  9995,2 25867  52.7584 123.0489 8164697 310.7158   0.2585  0.37803381 16565
